{"type": "FeatureCollection", "features": [{"type": "Feature", "properties": {"segment_id": "SEG_001", "predicted_change": -0.8035653829574585, "priority_class": "Medium"}, "geometry": {"type": "Point", "coordinates": [80.2, 13.0]}}, {"type": "Feature", "properties": {"segment_id": "SEG_002", "predicted_change": -0.09551790356636047, "priority_class": "Low"}, "geometry": {"type": "Point", "coordinates": [80.20100000000001, 12.995]}}, {"type": "Feature", "properties": {"segment_id": "SEG_003", "predicted_change": -1.3415769338607788, "priority_class": "High"}, "geometry": {"type": "Point", "coordinates": [80.202, 12.99]}}, {"type": "Feature", "properties": {"segment_id": "SEG_004", "predicted_change": -1.5018397569656372, "priority_class": "High"}, "geometry": {"type": "Point", "coordinates": [80.203, 12.985]}}, {"type": "Feature", "properties": {"segment_id": "SEG_005", "predicted_change": -1.0640825033187866, "priority_class": "Medium"}, "geometry": {"type": "Point", "coordinates": [80.20400000000001, 12.98]}}, {"type": "Feature", "properties": {"segment_id": "SEG_006", "predicted_change": -1.3665591478347778, "priority_class": "High"}, "geometry": {"type": "Point", "coordinates": [80.205, 12.975]}}, {"type": "Feature", "properties": {"segment_id": "SEG_007", "predicted_change": -1.6932120323181152, "priority_class": "High"}, "geometry": {"type": "Point", "coordinates": [80.206, 12.97]}}, {"type": "Feature", "properties": {"segment_id": "SEG_008", "predicted_change": -1.0947636365890503, "priority_class": "High"}, "geometry": {"type": "Point", "coordinates": [80.20700000000001, 12.965]}}, {"type": "Feature", "properties": {"segment_id": "SEG_009", "predicted_change": -0.3385833501815796, "priority_class": "Medium"}, "geometry": {"type": "Point", "coordinates": [80.208, 12.96]}}, {"type": "Feature", "properties": {"segment_id": "SEG_010", "predicted_change": 0.028404993936419487, "priority_class": "Low"}, "geometry": {"type": "Point", "coordinates": [80.209, 12.955]}}, {"type": "Feature", "properties": {"segment_id": "SEG_011", "predicted_change": -1.295526385307312, "priority_class": "High"}, "geometry": {"type": "Point", "coordinates": [80.21000000000001, 12.95]}}, {"type": "Feature", "properties": {"segment_id": "SEG_012", "predicted_change": -0.6158016920089722, "priority_class": "Medium"}, "geometry": {"type": "Point", "coordinates": [80.211, 12.945]}}, {"type": "Feature", "properties": {"segment_id": "SEG_013", "predicted_change": -0.4900193214416504, "priority_class": "Medium"}, "geometry": {"type": "Point", "coordinates": [80.212, 12.94]}}, {"type": "Feature", "properties": {"segment_id": "SEG_014", "predicted_change": -0.5190496444702148, "priority_class": "Medium"}, "geometry": {"type": "Point", "coordinates": [80.21300000000001, 12.935]}}, {"type": "Feature", "properties": {"segment_id": "SEG_015", "predicted_change": -0.7548994421958923, "priority_class": "Medium"}, "geometry": {"type": "Point", "coordinates": [80.214, 12.93]}}, {"type": "Feature", "properties": {"segment_id": "SEG_016", "predicted_change": -0.6676410436630249, "priority_class": "Medium"}, "geometry": {"type": "Point", "coordinates": [80.215, 12.925]}}, {"type": "Feature", "properties": {"segment_id": "SEG_017", "predicted_change": -0.6586647033691406, "priority_class": "Medium"}, "geometry": {"type": "Point", "coordinates": [80.21600000000001, 12.92]}}, {"type": "Feature", "properties": {"segment_id": "SEG_018", "predicted_change": -0.8828768134117126, "priority_class": "Medium"}, "geometry": {"type": "Point", "coordinates": [80.217, 12.915]}}, {"type": "Feature", "properties": {"segment_id": "SEG_019", "predicted_change": -0.28549298644065857, "priority_class": "Low"}, "geometry": {"type": "Point", "coordinates": [80.218, 12.91]}}, {"type": "Feature", "properties": {"segment_id": "SEG_020", "predicted_change": -0.2488502711057663, "priority_class": "Low"}, "geometry": {"type": "Point", "coordinates": [80.21900000000001, 12.905]}}, {"type": "Feature", "properties": {"segment_id": "SEG_021", "predicted_change": -0.19327238202095032, "priority_class": "Low"}, "geometry": {"type": "Point", "coordinates": [80.22, 12.9]}}, {"type": "Feature", "properties": {"segment_id": "SEG_022", "predicted_change": -1.0087816715240479, "priority_class": "Medium"}, "geometry": {"type": "Point", "coordinates": [80.221, 12.895]}}, {"type": "Feature", "properties": {"segment_id": "SEG_023", "predicted_change": -0.5078290104866028, "priority_class": "Medium"}, "geometry": {"type": "Point", "coordinates": [80.22200000000001, 12.89]}}, {"type": "Feature", "properties": {"segment_id": "SEG_024", "predicted_change": -1.3529930114746094, "priority_class": "High"}, "geometry": {"type": "Point", "coordinates": [80.223, 12.885]}}, {"type": "Feature", "properties": {"segment_id": "SEG_025", "predicted_change": -0.5419736504554749, "priority_class": "Low"}, "geometry": {"type": "Point", "coordinates": [80.224, 12.88]}}, {"type": "Feature", "properties": {"segment_id": "SEG_026", "predicted_change": -0.07972123473882675, "priority_class": "Low"}, "geometry": {"type": "Point", "coordinates": [80.22500000000001, 12.875]}}, {"type": "Feature", "properties": {"segment_id": "SEG_027", "predicted_change": -0.2954293191432953, "priority_class": "Medium"}, "geometry": {"type": "Point", "coordinates": [80.226, 12.87]}}, {"type": "Feature", "properties": {"segment_id": "SEG_028", "predicted_change": -0.5281630158424377, "priority_class": "Medium"}, "geometry": {"type": "Point", "coordinates": [80.227, 12.865]}}, {"type": "Feature", "properties": {"segment_id": "SEG_029", "predicted_change": -0.7596367001533508, "priority_class": "Medium"}, "geometry": {"type": "Point", "coordinates": [80.22800000000001, 12.86]}}, {"type": "Feature", "properties": {"segment_id": "SEG_030", "predicted_change": -0.15320996940135956, "priority_class": "Low"}, "geometry": {"type": "Point", "coordinates": [80.229, 12.855]}}, {"type": "Feature", "properties": {"segment_id": "SEG_031", "predicted_change": -0.8145595788955688, "priority_class": "Medium"}, "geometry": {"type": "Point", "coordinates": [80.23, 12.85]}}, {"type": "Feature", "properties": {"segment_id": "SEG_032", "predicted_change": -0.37665823101997375, "priority_class": "Low"}, "geometry": {"type": "Point", "coordinates": [80.23100000000001, 12.845]}}, {"type": "Feature", "properties": {"segment_id": "SEG_033", "predicted_change": -1.5560766458511353, "priority_class": "High"}, "geometry": {"type": "Point", "coordinates": [80.232, 12.84]}}, {"type": "Feature", "properties": {"segment_id": "SEG_034", "predicted_change": -0.4690952003002167, "priority_class": "Low"}, "geometry": {"type": "Point", "coordinates": [80.233, 12.835]}}, {"type": "Feature", "properties": {"segment_id": "SEG_035", "predicted_change": -1.4482507705688477, "priority_class": "High"}, "geometry": {"type": "Point", "coordinates": [80.23400000000001, 12.83]}}, {"type": "Feature", "properties": {"segment_id": "SEG_036", "predicted_change": 0.3598094880580902, "priority_class": "Low"}, "geometry": {"type": "Point", "coordinates": [80.235, 12.825]}}, {"type": "Feature", "properties": {"segment_id": "SEG_037", "predicted_change": -1.3523740768432617, "priority_class": "High"}, "geometry": {"type": "Point", "coordinates": [80.236, 12.82]}}, {"type": "Feature", "properties": {"segment_id": "SEG_038", "predicted_change": 0.7048953771591187, "priority_class": "Low"}, "geometry": {"type": "Point", "coordinates": [80.23700000000001, 12.815]}}, {"type": "Feature", "properties": {"segment_id": "SEG_039", "predicted_change": 0.1503359079360962, "priority_class": "Low"}, "geometry": {"type": "Point", "coordinates": [80.238, 12.81]}}, {"type": "Feature", "properties": {"segment_id": "SEG_040", "predicted_change": -2.0512442588806152, "priority_class": "High"}, "geometry": {"type": "Point", "coordinates": [80.239, 12.805]}}, {"type": "Feature", "properties": {"segment_id": "SEG_041", "predicted_change": -1.684516191482544, "priority_class": "High"}, "geometry": {"type": "Point", "coordinates": [80.24000000000001, 12.8]}}, {"type": "Feature", "properties": {"segment_id": "SEG_042", "predicted_change": -0.7561339139938354, "priority_class": "Medium"}, "geometry": {"type": "Point", "coordinates": [80.241, 12.795]}}, {"type": "Feature", "properties": {"segment_id": "SEG_043", "predicted_change": -0.8953630924224854, "priority_class": "Medium"}, "geometry": {"type": "Point", "coordinates": [80.242, 12.79]}}, {"type": "Feature", "properties": {"segment_id": "SEG_044", "predicted_change": -2.352886438369751, "priority_class": "High"}, "geometry": {"type": "Point", "coordinates": [80.24300000000001, 12.785]}}, {"type": "Feature", "properties": {"segment_id": "SEG_045", "predicted_change": -1.8274884223937988, "priority_class": "High"}, "geometry": {"type": "Point", "coordinates": [80.244, 12.78]}}, {"type": "Feature", "properties": {"segment_id": "SEG_046", "predicted_change": -2.0038671493530273, "priority_class": "High"}, "geometry": {"type": "Point", "coordinates": [80.245, 12.775]}}, {"type": "Feature", "properties": {"segment_id": "SEG_047", "predicted_change": -1.4701027870178223, "priority_class": "High"}, "geometry": {"type": "Point", "coordinates": [80.24600000000001, 12.77]}}, {"type": "Feature", "properties": {"segment_id": "SEG_048", "predicted_change": -1.584484577178955, "priority_class": "High"}, "geometry": {"type": "Point", "coordinates": [80.247, 12.765]}}, {"type": "Feature", "properties": {"segment_id": "SEG_049", "predicted_change": -0.6404070258140564, "priority_class": "Medium"}, "geometry": {"type": "Point", "coordinates": [80.248, 12.76]}}, {"type": "Feature", "properties": {"segment_id": "SEG_050", "predicted_change": -0.2797955274581909, "priority_class": "Low"}, "geometry": {"type": "Point", "coordinates": [80.24900000000001, 12.755]}}, {"type": "Feature", "properties": {"segment_id": "SEG_051", "predicted_change": -2.0130929946899414, "priority_class": "High"}, "geometry": {"type": "Point", "coordinates": [80.25, 12.75]}}, {"type": "Feature", "properties": {"segment_id": "SEG_052", "predicted_change": -0.19158491492271423, "priority_class": "Low"}, "geometry": {"type": "Point", "coordinates": [80.251, 12.745]}}, {"type": "Feature", "properties": {"segment_id": "SEG_053", "predicted_change": -0.5937473177909851, "priority_class": "Medium"}, "geometry": {"type": "Point", "coordinates": [80.25200000000001, 12.74]}}, {"type": "Feature", "properties": {"segment_id": "SEG_054", "predicted_change": -0.49994003772735596, "priority_class": "Medium"}, "geometry": {"type": "Point", "coordinates": [80.253, 12.735]}}, {"type": "Feature", "properties": {"segment_id": "SEG_055", "predicted_change": -2.2955291271209717, "priority_class": "High"}, "geometry": {"type": "Point", "coordinates": [80.254, 12.73]}}, {"type": "Feature", "properties": {"segment_id": "SEG_056", "predicted_change": 0.46535927057266235, "priority_class": "Low"}, "geometry": {"type": "Point", "coordinates": [80.25500000000001, 12.725]}}, {"type": "Feature", "properties": {"segment_id": "SEG_057", "predicted_change": -0.2954186797142029, "priority_class": "Low"}, "geometry": {"type": "Point", "coordinates": [80.256, 12.72]}}, {"type": "Feature", "properties": {"segment_id": "SEG_058", "predicted_change": 0.5082293748855591, "priority_class": "Low"}, "geometry": {"type": "Point", "coordinates": [80.257, 12.715]}}, {"type": "Feature", "properties": {"segment_id": "SEG_059", "predicted_change": -1.8124803304672241, "priority_class": "High"}, "geometry": {"type": "Point", "coordinates": [80.25800000000001, 12.71]}}, {"type": "Feature", "properties": {"segment_id": "SEG_060", "predicted_change": 0.2152245193719864, "priority_class": "Low"}, "geometry": {"type": "Point", "coordinates": [80.259, 12.705]}}, {"type": "Feature", "properties": {"segment_id": "SEG_061", "predicted_change": -1.0015528202056885, "priority_class": "Medium"}, "geometry": {"type": "Point", "coordinates": [80.26, 12.7]}}, {"type": "Feature", "properties": {"segment_id": "SEG_062", "predicted_change": 0.5588014721870422, "priority_class": "Low"}, "geometry": {"type": "Point", "coordinates": [80.26100000000001, 12.695]}}, {"type": "Feature", "properties": {"segment_id": "SEG_063", "predicted_change": -1.8804824352264404, "priority_class": "High"}, "geometry": {"type": "Point", "coordinates": [80.262, 12.69]}}, {"type": "Feature", "properties": {"segment_id": "SEG_064", "predicted_change": -2.155791759490967, "priority_class": "High"}, "geometry": {"type": "Point", "coordinates": [80.263, 12.685]}}, {"type": "Feature", "properties": {"segment_id": "SEG_065", "predicted_change": 0.07065827399492264, "priority_class": "Low"}, "geometry": {"type": "Point", "coordinates": [80.264, 12.68]}}, {"type": "Feature", "properties": {"segment_id": "SEG_066", "predicted_change": -0.8183172941207886, "priority_class": "Medium"}, "geometry": {"type": "Point", "coordinates": [80.265, 12.675]}}, {"type": "Feature", "properties": {"segment_id": "SEG_067", "predicted_change": -2.0033981800079346, "priority_class": "High"}, "geometry": {"type": "Point", "coordinates": [80.266, 12.67]}}, {"type": "Feature", "properties": {"segment_id": "SEG_068", "predicted_change": -0.889385998249054, "priority_class": "Medium"}, "geometry": {"type": "Point", "coordinates": [80.267, 12.665]}}, {"type": "Feature", "properties": {"segment_id": "SEG_069", "predicted_change": -0.037088826298713684, "priority_class": "Low"}, "geometry": {"type": "Point", "coordinates": [80.268, 12.66]}}, {"type": "Feature", "properties": {"segment_id": "SEG_070", "predicted_change": -1.6313039064407349, "priority_class": "High"}, "geometry": {"type": "Point", "coordinates": [80.269, 12.655]}}, {"type": "Feature", "properties": {"segment_id": "SEG_071", "predicted_change": 0.7842186093330383, "priority_class": "Low"}, "geometry": {"type": "Point", "coordinates": [80.27, 12.65]}}, {"type": "Feature", "properties": {"segment_id": "SEG_072", "predicted_change": -1.949998378753662, "priority_class": "High"}, "geometry": {"type": "Point", "coordinates": [80.271, 12.645]}}, {"type": "Feature", "properties": {"segment_id": "SEG_073", "predicted_change": -0.03627360612154007, "priority_class": "Low"}, "geometry": {"type": "Point", "coordinates": [80.272, 12.64]}}, {"type": "Feature", "properties": {"segment_id": "SEG_074", "predicted_change": 0.038811177015304565, "priority_class": "Low"}, "geometry": {"type": "Point", "coordinates": [80.273, 12.635]}}, {"type": "Feature", "properties": {"segment_id": "SEG_075", "predicted_change": -1.0126614570617676, "priority_class": "Medium"}, "geometry": {"type": "Point", "coordinates": [80.274, 12.63]}}, {"type": "Feature", "properties": {"segment_id": "SEG_076", "predicted_change": -1.4059562683105469, "priority_class": "High"}, "geometry": {"type": "Point", "coordinates": [80.275, 12.625]}}, {"type": "Feature", "properties": {"segment_id": "SEG_077", "predicted_change": -1.2867166996002197, "priority_class": "Medium"}, "geometry": {"type": "Point", "coordinates": [80.276, 12.62]}}, {"type": "Feature", "properties": {"segment_id": "SEG_078", "predicted_change": -0.8356934189796448, "priority_class": "Medium"}, "geometry": {"type": "Point", "coordinates": [80.277, 12.615]}}, {"type": "Feature", "properties": {"segment_id": "SEG_079", "predicted_change": -1.2948306798934937, "priority_class": "Medium"}, "geometry": {"type": "Point", "coordinates": [80.278, 12.61]}}, {"type": "Feature", "properties": {"segment_id": "SEG_080", "predicted_change": -0.06946159154176712, "priority_class": "Low"}, "geometry": {"type": "Point", "coordinates": [80.279, 12.605]}}, {"type": "Feature", "properties": {"segment_id": "SEG_081", "predicted_change": 0.4511491656303406, "priority_class": "Low"}, "geometry": {"type": "Point", "coordinates": [80.28, 12.6]}}, {"type": "Feature", "properties": {"segment_id": "SEG_082", "predicted_change": -1.5456271171569824, "priority_class": "High"}, "geometry": {"type": "Point", "coordinates": [80.281, 12.595]}}, {"type": "Feature", "properties": {"segment_id": "SEG_083", "predicted_change": -1.8574200868606567, "priority_class": "High"}, "geometry": {"type": "Point", "coordinates": [80.282, 12.59]}}, {"type": "Feature", "properties": {"segment_id": "SEG_084", "predicted_change": -1.2957240343093872, "priority_class": "High"}, "geometry": {"type": "Point", "coordinates": [80.283, 12.585]}}, {"type": "Feature", "properties": {"segment_id": "SEG_085", "predicted_change": 0.16600966453552246, "priority_class": "Low"}, "geometry": {"type": "Point", "coordinates": [80.284, 12.58]}}, {"type": "Feature", "properties": {"segment_id": "SEG_086", "predicted_change": -1.7794727087020874, "priority_class": "High"}, "geometry": {"type": "Point", "coordinates": [80.285, 12.575]}}, {"type": "Feature", "properties": {"segment_id": "SEG_087", "predicted_change": -0.37122008204460144, "priority_class": "Low"}, "geometry": {"type": "Point", "coordinates": [80.286, 12.57]}}, {"type": "Feature", "properties": {"segment_id": "SEG_088", "predicted_change": -0.39107728004455566, "priority_class": "Low"}, "geometry": {"type": "Point", "coordinates": [80.287, 12.565]}}, {"type": "Feature", "properties": {"segment_id": "SEG_089", "predicted_change": -0.563183605670929, "priority_class": "Medium"}, "geometry": {"type": "Point", "coordinates": [80.288, 12.56]}}, {"type": "Feature", "properties": {"segment_id": "SEG_090", "predicted_change": -0.9992307424545288, "priority_class": "Medium"}, "geometry": {"type": "Point", "coordinates": [80.289, 12.555]}}, {"type": "Feature", "properties": {"segment_id": "SEG_091", "predicted_change": -0.27529028058052063, "priority_class": "Low"}, "geometry": {"type": "Point", "coordinates": [80.29, 12.55]}}, {"type": "Feature", "properties": {"segment_id": "SEG_092", "predicted_change": -0.18395471572875977, "priority_class": "Low"}, "geometry": {"type": "Point", "coordinates": [80.291, 12.545]}}, {"type": "Feature", "properties": {"segment_id": "SEG_093", "predicted_change": 0.5555278062820435, "priority_class": "Low"}, "geometry": {"type": "Point", "coordinates": [80.292, 12.54]}}, {"type": "Feature", "properties": {"segment_id": "SEG_094", "predicted_change": -0.7899514436721802, "priority_class": "Medium"}, "geometry": {"type": "Point", "coordinates": [80.293, 12.535]}}, {"type": "Feature", "properties": {"segment_id": "SEG_095", "predicted_change": 0.001968109980225563, "priority_class": "Low"}, "geometry": {"type": "Point", "coordinates": [80.294, 12.53]}}, {"type": "Feature", "properties": {"segment_id": "SEG_096", "predicted_change": -1.0245411396026611, "priority_class": "Medium"}, "geometry": {"type": "Point", "coordinates": [80.295, 12.525]}}, {"type": "Feature", "properties": {"segment_id": "SEG_097", "predicted_change": -1.2908210754394531, "priority_class": "High"}, "geometry": {"type": "Point", "coordinates": [80.296, 12.52]}}, {"type": "Feature", "properties": {"segment_id": "SEG_098", "predicted_change": -1.9758327007293701, "priority_class": "High"}, "geometry": {"type": "Point", "coordinates": [80.297, 12.515]}}, {"type": "Feature", "properties": {"segment_id": "SEG_099", "predicted_change": -0.3472127914428711, "priority_class": "Medium"}, "geometry": {"type": "Point", "coordinates": [80.298, 12.51]}}, {"type": "Feature", "properties": {"segment_id": "SEG_100", "predicted_change": -1.254162311553955, "priority_class": "High"}, "geometry": {"type": "Point", "coordinates": [80.299, 12.505]}}]}