{
  "type": "FeatureCollection",
  "features": [
    {
      "type": "Feature",
      "properties": {
        "segment_id": "SEG_001",
        "observation_date": "2026-09-28",
        "ndvi": 0.2684006357503802,
        "ndwi": 0.21940443812874194,
        "mndwi": 0.1743773663803545,
        "savi": 0.2563574818795596,
        "water_probability": 0.6245552617002532,
        "land_water_class": "water",
        "classification_confidence": 0.6245552617002532,
        "quality_flag": "SYNTHETIC",
        "source_mode": "synthetic_fallback",
        "scene_id": "SYNTHETIC_LANDSAT_DEMO"
      },
      "geometry": {
        "type": "Point",
        "coordinates": [
          80.2,
          13.0
        ]
      }
    },
    {
      "type": "Feature",
      "properties": {
        "segment_id": "SEG_002",
        "observation_date": "2026-09-28",
        "ndvi": 0.3406084415694687,
        "ndwi": 0.2528544436881533,
        "mndwi": 0.2488926018344803,
        "savi": 0.32333441154308934,
        "water_probability": 0.6777804298817717,
        "land_water_class": "water",
        "classification_confidence": 0.6777804298817717,
        "quality_flag": "SYNTHETIC",
        "source_mode": "synthetic_fallback",
        "scene_id": "SYNTHETIC_LANDSAT_DEMO"
      },
      "geometry": {
        "type": "Point",
        "coordinates": [
          80.20100000000001,
          12.995
        ]
      }
    },
    {
      "type": "Feature",
      "properties": {
        "segment_id": "SEG_003",
        "observation_date": "2026-09-28",
        "ndvi": 0.28075304041206545,
        "ndwi": 0.26553009534500815,
        "mndwi": 0.19217761502456635,
        "savi": 0.23400419988819157,
        "water_probability": 0.6372697250175474,
        "land_water_class": "water",
        "classification_confidence": 0.6372697250175474,
        "quality_flag": "SYNTHETIC",
        "source_mode": "synthetic_fallback",
        "scene_id": "SYNTHETIC_LANDSAT_DEMO"
      },
      "geometry": {
        "type": "Point",
        "coordinates": [
          80.202,
          12.99
        ]
      }
    },
    {
      "type": "Feature",
      "properties": {
        "segment_id": "SEG_004",
        "observation_date": "2026-09-28",
        "ndvi": 0.289233250276382,
        "ndwi": 0.3757603042875292,
        "mndwi": 0.40649486803182144,
        "savi": 0.2214350808874884,
        "water_probability": 0.7903534771655868,
        "land_water_class": "water",
        "classification_confidence": 0.7903534771655868,
        "quality_flag": "SYNTHETIC",
        "source_mode": "synthetic_fallback",
        "scene_id": "SYNTHETIC_LANDSAT_DEMO"
      },
      "geometry": {
        "type": "Point",
        "coordinates": [
          80.203,
          12.985
        ]
      }
    },
    {
      "type": "Feature",
      "properties": {
        "segment_id": "SEG_005",
        "observation_date": "2026-09-28",
        "ndvi": 0.32373754957075906,
        "ndwi": 0.2825463454904394,
        "mndwi": 0.32247692792776106,
        "savi": 0.28214175682714676,
        "water_probability": 0.7303406628055437,
        "land_water_class": "water",
        "classification_confidence": 0.7303406628055437,
        "quality_flag": "SYNTHETIC",
        "source_mode": "synthetic_fallback",
        "scene_id": "SYNTHETIC_LANDSAT_DEMO"
      },
      "geometry": {
        "type": "Point",
        "coordinates": [
          80.20400000000001,
          12.98
        ]
      }
    },
    {
      "type": "Feature",
      "properties": {
        "segment_id": "SEG_006",
        "observation_date": "2026-09-28",
        "ndvi": 0.3228282160902746,
        "ndwi": 0.22611525326817794,
        "mndwi": 0.31354460245951793,
        "savi": 0.26481384718601436,
        "water_probability": 0.7239604303282271,
        "land_water_class": "water",
        "classification_confidence": 0.7239604303282271,
        "quality_flag": "SYNTHETIC",
        "source_mode": "synthetic_fallback",
        "scene_id": "SYNTHETIC_LANDSAT_DEMO"
      },
      "geometry": {
        "type": "Point",
        "coordinates": [
          80.205,
          12.975
        ]
      }
    },
    {
      "type": "Feature",
      "properties": {
        "segment_id": "SEG_007",
        "observation_date": "2026-09-28",
        "ndvi": 0.27881827058535674,
        "ndwi": 0.19238370722418333,
        "mndwi": 0.182618523317883,
        "savi": 0.25458219993833153,
        "water_probability": 0.6304418023699164,
        "land_water_class": "water",
        "classification_confidence": 0.6304418023699164,
        "quality_flag": "SYNTHETIC",
        "source_mode": "synthetic_fallback",
        "scene_id": "SYNTHETIC_LANDSAT_DEMO"
      },
      "geometry": {
        "type": "Point",
        "coordinates": [
          80.206,
          12.97
        ]
      }
    },
    {
      "type": "Feature",
      "properties": {
        "segment_id": "SEG_008",
        "observation_date": "2026-09-28",
        "ndvi": 0.24062458023178307,
        "ndwi": 0.18618566741299675,
        "mndwi": 0.24135280457309344,
        "savi": 0.21944571551862854,
        "water_probability": 0.6723948604093525,
        "land_water_class": "water",
        "classification_confidence": 0.6723948604093525,
        "quality_flag": "SYNTHETIC",
        "source_mode": "synthetic_fallback",
        "scene_id": "SYNTHETIC_LANDSAT_DEMO"
      },
      "geometry": {
        "type": "Point",
        "coordinates": [
          80.20700000000001,
          12.965
        ]
      }
    },
    {
      "type": "Feature",
      "properties": {
        "segment_id": "SEG_009",
        "observation_date": "2026-09-28",
        "ndvi": 0.2523662035623033,
        "ndwi": 0.38354731945589954,
        "mndwi": 0.40533055024980386,
        "savi": 0.20305913620800797,
        "water_probability": 0.7895218216070028,
        "land_water_class": "water",
        "classification_confidence": 0.7895218216070028,
        "quality_flag": "SYNTHETIC",
        "source_mode": "synthetic_fallback",
        "scene_id": "SYNTHETIC_LANDSAT_DEMO"
      },
      "geometry": {
        "type": "Point",
        "coordinates": [
          80.208,
          12.96
        ]
      }
    },
    {
      "type": "Feature",
      "properties": {
        "segment_id": "SEG_010",
        "observation_date": "2026-09-28",
        "ndvi": 0.26698051251630434,
        "ndwi": 0.42112127785019254,
        "mndwi": 0.4465191765728418,
        "savi": 0.22454188931166671,
        "water_probability": 0.8189422689806013,
        "land_water_class": "water",
        "classification_confidence": 0.8189422689806013,
        "quality_flag": "SYNTHETIC",
        "source_mode": "synthetic_fallback",
        "scene_id": "SYNTHETIC_LANDSAT_DEMO"
      },
      "geometry": {
        "type": "Point",
        "coordinates": [
          80.209,
          12.955
        ]
      }
    },
    {
      "type": "Feature",
      "properties": {
        "segment_id": "SEG_011",
        "observation_date": "2026-09-28",
        "ndvi": 0.31420511394445405,
        "ndwi": 0.36517972548775146,
        "mndwi": 0.386555563751437,
        "savi": 0.2891998139067985,
        "water_probability": 0.7761111169653122,
        "land_water_class": "water",
        "classification_confidence": 0.7761111169653122,
        "quality_flag": "SYNTHETIC",
        "source_mode": "synthetic_fallback",
        "scene_id": "SYNTHETIC_LANDSAT_DEMO"
      },
      "geometry": {
        "type": "Point",
        "coordinates": [
          80.21000000000001,
          12.95
        ]
      }
    },
    {
      "type": "Feature",
      "properties": {
        "segment_id": "SEG_012",
        "observation_date": "2026-09-28",
        "ndvi": 0.26235544164313745,
        "ndwi": 0.4383593185008036,
        "mndwi": 0.47400831584261127,
        "savi": 0.1796203897650132,
        "water_probability": 0.8385773684590081,
        "land_water_class": "water",
        "classification_confidence": 0.8385773684590081,
        "quality_flag": "SYNTHETIC",
        "source_mode": "synthetic_fallback",
        "scene_id": "SYNTHETIC_LANDSAT_DEMO"
      },
      "geometry": {
        "type": "Point",
        "coordinates": [
          80.211,
          12.945
        ]
      }
    },
    {
      "type": "Feature",
      "properties": {
        "segment_id": "SEG_013",
        "observation_date": "2026-09-28",
        "ndvi": 0.24998013092964438,
        "ndwi": 0.39185555679550704,
        "mndwi": 0.3786557557572011,
        "savi": 0.2532587385474108,
        "water_probability": 0.7704683969694295,
        "land_water_class": "water",
        "classification_confidence": 0.7704683969694295,
        "quality_flag": "SYNTHETIC",
        "source_mode": "synthetic_fallback",
        "scene_id": "SYNTHETIC_LANDSAT_DEMO"
      },
      "geometry": {
        "type": "Point",
        "coordinates": [
          80.212,
          12.94
        ]
      }
    },
    {
      "type": "Feature",
      "properties": {
        "segment_id": "SEG_014",
        "observation_date": "2026-09-28",
        "ndvi": 0.17712093674949264,
        "ndwi": 0.48749054145229287,
        "mndwi": 0.4493814846434286,
        "savi": 0.14388611532410553,
        "water_probability": 0.8209867747453061,
        "land_water_class": "water",
        "classification_confidence": 0.8209867747453061,
        "quality_flag": "SYNTHETIC",
        "source_mode": "synthetic_fallback",
        "scene_id": "SYNTHETIC_LANDSAT_DEMO"
      },
      "geometry": {
        "type": "Point",
        "coordinates": [
          80.21300000000001,
          12.935
        ]
      }
    },
    {
      "type": "Feature",
      "properties": {
        "segment_id": "SEG_015",
        "observation_date": "2026-09-28",
        "ndvi": 0.18146913321564928,
        "ndwi": 0.40449588674949166,
        "mndwi": 0.5324186635933702,
        "savi": 0.16228010710361696,
        "water_probability": 0.8802990454238359,
        "land_water_class": "water",
        "classification_confidence": 0.8802990454238359,
        "quality_flag": "SYNTHETIC",
        "source_mode": "synthetic_fallback",
        "scene_id": "SYNTHETIC_LANDSAT_DEMO"
      },
      "geometry": {
        "type": "Point",
        "coordinates": [
          80.214,
          12.93
        ]
      }
    },
    {
      "type": "Feature",
      "properties": {
        "segment_id": "SEG_016",
        "observation_date": "2026-09-28",
        "ndvi": 0.16803984279261994,
        "ndwi": 0.40338741477729456,
        "mndwi": 0.503868391459556,
        "savi": 0.128244629101527,
        "water_probability": 0.8599059938996828,
        "land_water_class": "water",
        "classification_confidence": 0.8599059938996828,
        "quality_flag": "SYNTHETIC",
        "source_mode": "synthetic_fallback",
        "scene_id": "SYNTHETIC_LANDSAT_DEMO"
      },
      "geometry": {
        "type": "Point",
        "coordinates": [
          80.215,
          12.925
        ]
      }
    },
    {
      "type": "Feature",
      "properties": {
        "segment_id": "SEG_017",
        "observation_date": "2026-09-28",
        "ndvi": 0.16849821747109384,
        "ndwi": 0.5828752864448016,
        "mndwi": 0.45516710249869174,
        "savi": 0.11858188447369819,
        "water_probability": 0.8251193589276371,
        "land_water_class": "water",
        "classification_confidence": 0.8251193589276371,
        "quality_flag": "SYNTHETIC",
        "source_mode": "synthetic_fallback",
        "scene_id": "SYNTHETIC_LANDSAT_DEMO"
      },
      "geometry": {
        "type": "Point",
        "coordinates": [
          80.21600000000001,
          12.92
        ]
      }
    },
    {
      "type": "Feature",
      "properties": {
        "segment_id": "SEG_018",
        "observation_date": "2026-09-28",
        "ndvi": 0.20309257330512973,
        "ndwi": 0.46697198909661397,
        "mndwi": 0.49427099791706075,
        "savi": 0.13586051439634284,
        "water_probability": 0.8530507127979006,
        "land_water_class": "water",
        "classification_confidence": 0.8530507127979006,
        "quality_flag": "SYNTHETIC",
        "source_mode": "synthetic_fallback",
        "scene_id": "SYNTHETIC_LANDSAT_DEMO"
      },
      "geometry": {
        "type": "Point",
        "coordinates": [
          80.217,
          12.915
        ]
      }
    },
    {
      "type": "Feature",
      "properties": {
        "segment_id": "SEG_019",
        "observation_date": "2026-09-28",
        "ndvi": 0.18154567417827988,
        "ndwi": 0.639158903396055,
        "mndwi": 0.6638145372460792,
        "savi": 0.18750248435333455,
        "water_probability": 0.9741532408900567,
        "land_water_class": "water",
        "classification_confidence": 0.9741532408900567,
        "quality_flag": "SYNTHETIC",
        "source_mode": "synthetic_fallback",
        "scene_id": "SYNTHETIC_LANDSAT_DEMO"
      },
      "geometry": {
        "type": "Point",
        "coordinates": [
          80.218,
          12.91
        ]
      }
    },
    {
      "type": "Feature",
      "properties": {
        "segment_id": "SEG_020",
        "observation_date": "2026-09-28",
        "ndvi": 0.1529670586137463,
        "ndwi": 0.6852685555138025,
        "mndwi": 0.7082597947819618,
        "savi": 0.17386532858895043,
        "water_probability": 1.0,
        "land_water_class": "water",
        "classification_confidence": 1.0,
        "quality_flag": "SYNTHETIC",
        "source_mode": "synthetic_fallback",
        "scene_id": "SYNTHETIC_LANDSAT_DEMO"
      },
      "geometry": {
        "type": "Point",
        "coordinates": [
          80.21900000000001,
          12.905
        ]
      }
    },
    {
      "type": "Feature",
      "properties": {
        "segment_id": "SEG_021",
        "observation_date": "2026-09-28",
        "ndvi": 0.20376072023897943,
        "ndwi": 0.6121470669678527,
        "mndwi": 0.606711972553748,
        "savi": 0.19251477600143824,
        "water_probability": 0.9333656946812486,
        "land_water_class": "water",
        "classification_confidence": 0.9333656946812486,
        "quality_flag": "SYNTHETIC",
        "source_mode": "synthetic_fallback",
        "scene_id": "SYNTHETIC_LANDSAT_DEMO"
      },
      "geometry": {
        "type": "Point",
        "coordinates": [
          80.22,
          12.9
        ]
      }
    },
    {
      "type": "Feature",
      "properties": {
        "segment_id": "SEG_022",
        "observation_date": "2026-09-28",
        "ndvi": 0.08173532436174819,
        "ndwi": 0.6624252986897398,
        "mndwi": 0.6605874091340748,
        "savi": 0.0549499427074786,
        "water_probability": 0.9718481493814821,
        "land_water_class": "water",
        "classification_confidence": 0.9718481493814821,
        "quality_flag": "SYNTHETIC",
        "source_mode": "synthetic_fallback",
        "scene_id": "SYNTHETIC_LANDSAT_DEMO"
      },
      "geometry": {
        "type": "Point",
        "coordinates": [
          80.221,
          12.895
        ]
      }
    },
    {
      "type": "Feature",
      "properties": {
        "segment_id": "SEG_023",
        "observation_date": "2026-09-28",
        "ndvi": 0.13191616322414002,
        "ndwi": 0.5858491850122763,
        "mndwi": 0.5752547835050537,
        "savi": 0.07959709657351802,
        "water_probability": 0.9108962739321812,
        "land_water_class": "water",
        "classification_confidence": 0.9108962739321812,
        "quality_flag": "SYNTHETIC",
        "source_mode": "synthetic_fallback",
        "scene_id": "SYNTHETIC_LANDSAT_DEMO"
      },
      "geometry": {
        "type": "Point",
        "coordinates": [
          80.22200000000001,
          12.89
        ]
      }
    },
    {
      "type": "Feature",
      "properties": {
        "segment_id": "SEG_024",
        "observation_date": "2026-09-28",
        "ndvi": 0.08618804149248788,
        "ndwi": 0.49908824907602456,
        "mndwi": 0.48015194886060414,
        "savi": 0.10943544389526169,
        "water_probability": 0.8429656777575744,
        "land_water_class": "water",
        "classification_confidence": 0.8429656777575744,
        "quality_flag": "SYNTHETIC",
        "source_mode": "synthetic_fallback",
        "scene_id": "SYNTHETIC_LANDSAT_DEMO"
      },
      "geometry": {
        "type": "Point",
        "coordinates": [
          80.223,
          12.885
        ]
      }
    },
    {
      "type": "Feature",
      "properties": {
        "segment_id": "SEG_025",
        "observation_date": "2026-09-28",
        "ndvi": 0.09389862369911028,
        "ndwi": 0.4238777368975486,
        "mndwi": 0.5293414403789465,
        "savi": 0.03580247278251403,
        "water_probability": 0.8781010288421046,
        "land_water_class": "water",
        "classification_confidence": 0.8781010288421046,
        "quality_flag": "SYNTHETIC",
        "source_mode": "synthetic_fallback",
        "scene_id": "SYNTHETIC_LANDSAT_DEMO"
      },
      "geometry": {
        "type": "Point",
        "coordinates": [
          80.224,
          12.88
        ]
      }
    },
    {
      "type": "Feature",
      "properties": {
        "segment_id": "SEG_026",
        "observation_date": "2026-09-28",
        "ndvi": 0.09951333637256216,
        "ndwi": 0.6742052995745369,
        "mndwi": 0.5704834409102013,
        "savi": 0.05498062356383071,
        "water_probability": 0.9074881720787152,
        "land_water_class": "water",
        "classification_confidence": 0.9074881720787152,
        "quality_flag": "SYNTHETIC",
        "source_mode": "synthetic_fallback",
        "scene_id": "SYNTHETIC_LANDSAT_DEMO"
      },
      "geometry": {
        "type": "Point",
        "coordinates": [
          80.22500000000001,
          12.875
        ]
      }
    },
    {
      "type": "Feature",
      "properties": {
        "segment_id": "SEG_027",
        "observation_date": "2026-09-28",
        "ndvi": 0.06378112843601251,
        "ndwi": 0.5934609430379763,
        "mndwi": 0.5795307496604009,
        "savi": 0.03755414260604015,
        "water_probability": 0.9139505354717149,
        "land_water_class": "water",
        "classification_confidence": 0.9139505354717149,
        "quality_flag": "SYNTHETIC",
        "source_mode": "synthetic_fallback",
        "scene_id": "SYNTHETIC_LANDSAT_DEMO"
      },
      "geometry": {
        "type": "Point",
        "coordinates": [
          80.226,
          12.87
        ]
      }
    },
    {
      "type": "Feature",
      "properties": {
        "segment_id": "SEG_028",
        "observation_date": "2026-09-28",
        "ndvi": 0.07615723967403676,
        "ndwi": 0.5318578102581826,
        "mndwi": 0.5376950061629919,
        "savi": 0.1275287029908491,
        "water_probability": 0.8840678615449943,
        "land_water_class": "water",
        "classification_confidence": 0.8840678615449943,
        "quality_flag": "SYNTHETIC",
        "source_mode": "synthetic_fallback",
        "scene_id": "SYNTHETIC_LANDSAT_DEMO"
      },
      "geometry": {
        "type": "Point",
        "coordinates": [
          80.227,
          12.865
        ]
      }
    },
    {
      "type": "Feature",
      "properties": {
        "segment_id": "SEG_029",
        "observation_date": "2026-09-28",
        "ndvi": -0.016680989420994344,
        "ndwi": 0.6845188819614703,
        "mndwi": 0.6288725730679794,
        "savi": -0.0005462308614143044,
        "water_probability": 0.9491946950485567,
        "land_water_class": "water",
        "classification_confidence": 0.9491946950485567,
        "quality_flag": "SYNTHETIC",
        "source_mode": "synthetic_fallback",
        "scene_id": "SYNTHETIC_LANDSAT_DEMO"
      },
      "geometry": {
        "type": "Point",
        "coordinates": [
          80.22800000000001,
          12.86
        ]
      }
    },
    {
      "type": "Feature",
      "properties": {
        "segment_id": "SEG_030",
        "observation_date": "2026-09-28",
        "ndvi": 0.04941946040149209,
        "ndwi": 0.6518602994750126,
        "mndwi": 0.5635707810954231,
        "savi": -0.03499321188667065,
        "water_probability": 0.9025505579253023,
        "land_water_class": "water",
        "classification_confidence": 0.9025505579253023,
        "quality_flag": "SYNTHETIC",
        "source_mode": "synthetic_fallback",
        "scene_id": "SYNTHETIC_LANDSAT_DEMO"
      },
      "geometry": {
        "type": "Point",
        "coordinates": [
          80.229,
          12.855
        ]
      }
    },
    {
      "type": "Feature",
      "properties": {
        "segment_id": "SEG_031",
        "observation_date": "2026-09-28",
        "ndvi": -0.02715190229345675,
        "ndwi": 0.7652680663766269,
        "mndwi": 0.7134383855547356,
        "savi": -0.03293487364312506,
        "water_probability": 1.0,
        "land_water_class": "water",
        "classification_confidence": 1.0,
        "quality_flag": "SYNTHETIC",
        "source_mode": "synthetic_fallback",
        "scene_id": "SYNTHETIC_LANDSAT_DEMO"
      },
      "geometry": {
        "type": "Point",
        "coordinates": [
          80.23,
          12.85
        ]
      }
    },
    {
      "type": "Feature",
      "properties": {
        "segment_id": "SEG_032",
        "observation_date": "2026-09-28",
        "ndvi": 0.04338003287050192,
        "ndwi": 0.7638884550353445,
        "mndwi": 0.659252383465277,
        "savi": 0.05004282270207559,
        "water_probability": 0.970894559618055,
        "land_water_class": "water",
        "classification_confidence": 0.970894559618055,
        "quality_flag": "SYNTHETIC",
        "source_mode": "synthetic_fallback",
        "scene_id": "SYNTHETIC_LANDSAT_DEMO"
      },
      "geometry": {
        "type": "Point",
        "coordinates": [
          80.23100000000001,
          12.845
        ]
      }
    },
    {
      "type": "Feature",
      "properties": {
        "segment_id": "SEG_033",
        "observation_date": "2026-09-28",
        "ndvi": 0.010585704671020388,
        "ndwi": 0.6860600514325532,
        "mndwi": 0.615785225824514,
        "savi": 0.03152391863230512,
        "water_probability": 0.9398465898746529,
        "land_water_class": "water",
        "classification_confidence": 0.9398465898746529,
        "quality_flag": "SYNTHETIC",
        "source_mode": "synthetic_fallback",
        "scene_id": "SYNTHETIC_LANDSAT_DEMO"
      },
      "geometry": {
        "type": "Point",
        "coordinates": [
          80.232,
          12.84
        ]
      }
    },
    {
      "type": "Feature",
      "properties": {
        "segment_id": "SEG_034",
        "observation_date": "2026-09-28",
        "ndvi": 0.03693728783039768,
        "ndwi": 0.6186738806504104,
        "mndwi": 0.6606097063651352,
        "savi": 0.0009851736626260606,
        "water_probability": 0.9718640759750965,
        "land_water_class": "water",
        "classification_confidence": 0.9718640759750965,
        "quality_flag": "SYNTHETIC",
        "source_mode": "synthetic_fallback",
        "scene_id": "SYNTHETIC_LANDSAT_DEMO"
      },
      "geometry": {
        "type": "Point",
        "coordinates": [
          80.233,
          12.835
        ]
      }
    },
    {
      "type": "Feature",
      "properties": {
        "segment_id": "SEG_035",
        "observation_date": "2026-09-28",
        "ndvi": 0.017706423035351013,
        "ndwi": 0.3456752882917538,
        "mndwi": 0.3413532738977991,
        "savi": 0.027467168141229154,
        "water_probability": 0.7438237670698565,
        "land_water_class": "water",
        "classification_confidence": 0.7438237670698565,
        "quality_flag": "SYNTHETIC",
        "source_mode": "synthetic_fallback",
        "scene_id": "SYNTHETIC_LANDSAT_DEMO"
      },
      "geometry": {
        "type": "Point",
        "coordinates": [
          80.23400000000001,
          12.83
        ]
      }
    },
    {
      "type": "Feature",
      "properties": {
        "segment_id": "SEG_036",
        "observation_date": "2026-09-28",
        "ndvi": 0.03439970179131909,
        "ndwi": 0.5033047375636196,
        "mndwi": 0.5375613572549273,
        "savi": 0.053652657221607544,
        "water_probability": 0.8839723980392339,
        "land_water_class": "water",
        "classification_confidence": 0.8839723980392339,
        "quality_flag": "SYNTHETIC",
        "source_mode": "synthetic_fallback",
        "scene_id": "SYNTHETIC_LANDSAT_DEMO"
      },
      "geometry": {
        "type": "Point",
        "coordinates": [
          80.235,
          12.825
        ]
      }
    },
    {
      "type": "Feature",
      "properties": {
        "segment_id": "SEG_037",
        "observation_date": "2026-09-28",
        "ndvi": 0.011816878795820223,
        "ndwi": 0.5378749606778451,
        "mndwi": 0.4778855058632275,
        "savi": -0.021711735482905087,
        "water_probability": 0.8413467899023053,
        "land_water_class": "water",
        "classification_confidence": 0.8413467899023053,
        "quality_flag": "SYNTHETIC",
        "source_mode": "synthetic_fallback",
        "scene_id": "SYNTHETIC_LANDSAT_DEMO"
      },
      "geometry": {
        "type": "Point",
        "coordinates": [
          80.236,
          12.82
        ]
      }
    },
    {
      "type": "Feature",
      "properties": {
        "segment_id": "SEG_038",
        "observation_date": "2026-09-28",
        "ndvi": 0.046550032223114955,
        "ndwi": 0.5230341005193325,
        "mndwi": 0.47162646156534094,
        "savi": 0.06482212939634957,
        "water_probability": 0.8368760439752435,
        "land_water_class": "water",
        "classification_confidence": 0.8368760439752435,
        "quality_flag": "SYNTHETIC",
        "source_mode": "synthetic_fallback",
        "scene_id": "SYNTHETIC_LANDSAT_DEMO"
      },
      "geometry": {
        "type": "Point",
        "coordinates": [
          80.23700000000001,
          12.815
        ]
      }
    },
    {
      "type": "Feature",
      "properties": {
        "segment_id": "SEG_039",
        "observation_date": "2026-09-28",
        "ndvi": 0.04366925734149382,
        "ndwi": 0.3625409133162384,
        "mndwi": 0.4586764857797739,
        "savi": -0.0004305476829144367,
        "water_probability": 0.827626061271267,
        "land_water_class": "water",
        "classification_confidence": 0.827626061271267,
        "quality_flag": "SYNTHETIC",
        "source_mode": "synthetic_fallback",
        "scene_id": "SYNTHETIC_LANDSAT_DEMO"
      },
      "geometry": {
        "type": "Point",
        "coordinates": [
          80.238,
          12.81
        ]
      }
    },
    {
      "type": "Feature",
      "properties": {
        "segment_id": "SEG_040",
        "observation_date": "2026-09-28",
        "ndvi": -0.007644630853666004,
        "ndwi": 0.2150567068503608,
        "mndwi": 0.24336326886866094,
        "savi": 0.007283636925882249,
        "water_probability": 0.6738309063347578,
        "land_water_class": "water",
        "classification_confidence": 0.6738309063347578,
        "quality_flag": "SYNTHETIC",
        "source_mode": "synthetic_fallback",
        "scene_id": "SYNTHETIC_LANDSAT_DEMO"
      },
      "geometry": {
        "type": "Point",
        "coordinates": [
          80.239,
          12.805
        ]
      }
    },
    {
      "type": "Feature",
      "properties": {
        "segment_id": "SEG_041",
        "observation_date": "2026-09-28",
        "ndvi": -0.0020484029150313367,
        "ndwi": 0.44003973415677533,
        "mndwi": 0.3908080256317302,
        "savi": -0.013553377644513798,
        "water_probability": 0.7791485897369501,
        "land_water_class": "water",
        "classification_confidence": 0.7791485897369501,
        "quality_flag": "SYNTHETIC",
        "source_mode": "synthetic_fallback",
        "scene_id": "SYNTHETIC_LANDSAT_DEMO"
      },
      "geometry": {
        "type": "Point",
        "coordinates": [
          80.24000000000001,
          12.8
        ]
      }
    },
    {
      "type": "Feature",
      "properties": {
        "segment_id": "SEG_042",
        "observation_date": "2026-09-28",
        "ndvi": -0.10235879910773286,
        "ndwi": 0.2218841280032966,
        "mndwi": 0.2625799944126072,
        "savi": -0.06452196224974073,
        "water_probability": 0.6875571388661481,
        "land_water_class": "water",
        "classification_confidence": 0.6875571388661481,
        "quality_flag": "SYNTHETIC",
        "source_mode": "synthetic_fallback",
        "scene_id": "SYNTHETIC_LANDSAT_DEMO"
      },
      "geometry": {
        "type": "Point",
        "coordinates": [
          80.241,
          12.795
        ]
      }
    },
    {
      "type": "Feature",
      "properties": {
        "segment_id": "SEG_043",
        "observation_date": "2026-09-28",
        "ndvi": -0.04060452051513157,
        "ndwi": 0.32790804632013937,
        "mndwi": 0.3635720674520635,
        "savi": -0.07892993781481232,
        "water_probability": 0.759694333894331,
        "land_water_class": "water",
        "classification_confidence": 0.759694333894331,
        "quality_flag": "SYNTHETIC",
        "source_mode": "synthetic_fallback",
        "scene_id": "SYNTHETIC_LANDSAT_DEMO"
      },
      "geometry": {
        "type": "Point",
        "coordinates": [
          80.242,
          12.79
        ]
      }
    },
    {
      "type": "Feature",
      "properties": {
        "segment_id": "SEG_044",
        "observation_date": "2026-09-28",
        "ndvi": 0.014773138168937341,
        "ndwi": 0.23931002675910978,
        "mndwi": 0.24717522580037338,
        "savi": -0.04237000733182916,
        "water_probability": 0.6765537327145524,
        "land_water_class": "water",
        "classification_confidence": 0.6765537327145524,
        "quality_flag": "SYNTHETIC",
        "source_mode": "synthetic_fallback",
        "scene_id": "SYNTHETIC_LANDSAT_DEMO"
      },
      "geometry": {
        "type": "Point",
        "coordinates": [
          80.24300000000001,
          12.785
        ]
      }
    },
    {
      "type": "Feature",
      "properties": {
        "segment_id": "SEG_045",
        "observation_date": "2026-09-28",
        "ndvi": 0.012795660765553893,
        "ndwi": 0.31048482845736913,
        "mndwi": 0.2887695172216385,
        "savi": 0.05049616131656582,
        "water_probability": 0.7062639408725989,
        "land_water_class": "water",
        "classification_confidence": 0.7062639408725989,
        "quality_flag": "SYNTHETIC",
        "source_mode": "synthetic_fallback",
        "scene_id": "SYNTHETIC_LANDSAT_DEMO"
      },
      "geometry": {
        "type": "Point",
        "coordinates": [
          80.244,
          12.78
        ]
      }
    },
    {
      "type": "Feature",
      "properties": {
        "segment_id": "SEG_046",
        "observation_date": "2026-09-28",
        "ndvi": 0.018409916505128826,
        "ndwi": 0.38334940176995386,
        "mndwi": 0.2662886481623759,
        "savi": 0.07795784490097209,
        "water_probability": 0.6902061772588399,
        "land_water_class": "water",
        "classification_confidence": 0.6902061772588399,
        "quality_flag": "SYNTHETIC",
        "source_mode": "synthetic_fallback",
        "scene_id": "SYNTHETIC_LANDSAT_DEMO"
      },
      "geometry": {
        "type": "Point",
        "coordinates": [
          80.245,
          12.775
        ]
      }
    },
    {
      "type": "Feature",
      "properties": {
        "segment_id": "SEG_047",
        "observation_date": "2026-09-28",
        "ndvi": -0.023150652569141852,
        "ndwi": 0.17887834707200956,
        "mndwi": 0.2742523966705477,
        "savi": -0.08186755776350932,
        "water_probability": 0.6958945690503913,
        "land_water_class": "water",
        "classification_confidence": 0.6958945690503913,
        "quality_flag": "SYNTHETIC",
        "source_mode": "synthetic_fallback",
        "scene_id": "SYNTHETIC_LANDSAT_DEMO"
      },
      "geometry": {
        "type": "Point",
        "coordinates": [
          80.24600000000001,
          12.77
        ]
      }
    },
    {
      "type": "Feature",
      "properties": {
        "segment_id": "SEG_048",
        "observation_date": "2026-09-28",
        "ndvi": 0.0005056938044235536,
        "ndwi": 0.2318554741016783,
        "mndwi": 0.24891730438408402,
        "savi": 0.005989609216221481,
        "water_probability": 0.67779807456006,
        "land_water_class": "water",
        "classification_confidence": 0.67779807456006,
        "quality_flag": "SYNTHETIC",
        "source_mode": "synthetic_fallback",
        "scene_id": "SYNTHETIC_LANDSAT_DEMO"
      },
      "geometry": {
        "type": "Point",
        "coordinates": [
          80.247,
          12.765
        ]
      }
    },
    {
      "type": "Feature",
      "properties": {
        "segment_id": "SEG_049",
        "observation_date": "2026-09-28",
        "ndvi": 0.08156008510540089,
        "ndwi": 0.21611280958729678,
        "mndwi": 0.2106215988969043,
        "savi": 0.08674938519948465,
        "water_probability": 0.6504439992120745,
        "land_water_class": "water",
        "classification_confidence": 0.6504439992120745,
        "quality_flag": "SYNTHETIC",
        "source_mode": "synthetic_fallback",
        "scene_id": "SYNTHETIC_LANDSAT_DEMO"
      },
      "geometry": {
        "type": "Point",
        "coordinates": [
          80.248,
          12.76
        ]
      }
    },
    {
      "type": "Feature",
      "properties": {
        "segment_id": "SEG_050",
        "observation_date": "2026-09-28",
        "ndvi": 0.0471265829042839,
        "ndwi": 0.23392560641646173,
        "mndwi": 0.25110053042980324,
        "savi": 0.0536765628479022,
        "water_probability": 0.6793575217355738,
        "land_water_class": "water",
        "classification_confidence": 0.6793575217355738,
        "quality_flag": "SYNTHETIC",
        "source_mode": "synthetic_fallback",
        "scene_id": "SYNTHETIC_LANDSAT_DEMO"
      },
      "geometry": {
        "type": "Point",
        "coordinates": [
          80.24900000000001,
          12.755
        ]
      }
    },
    {
      "type": "Feature",
      "properties": {
        "segment_id": "SEG_051",
        "observation_date": "2026-09-28",
        "ndvi": 0.07724589342972632,
        "ndwi": 0.2016625943138948,
        "mndwi": 0.2448314083109822,
        "savi": 0.02058390573404046,
        "water_probability": 0.6748795773649873,
        "land_water_class": "water",
        "classification_confidence": 0.6748795773649873,
        "quality_flag": "SYNTHETIC",
        "source_mode": "synthetic_fallback",
        "scene_id": "SYNTHETIC_LANDSAT_DEMO"
      },
      "geometry": {
        "type": "Point",
        "coordinates": [
          80.25,
          12.75
        ]
      }
    },
    {
      "type": "Feature",
      "properties": {
        "segment_id": "SEG_052",
        "observation_date": "2026-09-28",
        "ndvi": 0.03920162769679769,
        "ndwi": -0.0116832393454933,
        "mndwi": -0.01765188772643761,
        "savi": 0.030738363987646584,
        "water_probability": 0.4873915087668303,
        "land_water_class": "land",
        "classification_confidence": 0.5126084912331696,
        "quality_flag": "SYNTHETIC",
        "source_mode": "synthetic_fallback",
        "scene_id": "SYNTHETIC_LANDSAT_DEMO"
      },
      "geometry": {
        "type": "Point",
        "coordinates": [
          80.251,
          12.745
        ]
      }
    },
    {
      "type": "Feature",
      "properties": {
        "segment_id": "SEG_053",
        "observation_date": "2026-09-28",
        "ndvi": 0.02586496355284005,
        "ndwi": 0.08143447041909341,
        "mndwi": 0.0012874102398794385,
        "savi": 0.016244899419062236,
        "water_probability": 0.500919578742771,
        "land_water_class": "water",
        "classification_confidence": 0.500919578742771,
        "quality_flag": "SYNTHETIC",
        "source_mode": "synthetic_fallback",
        "scene_id": "SYNTHETIC_LANDSAT_DEMO"
      },
      "geometry": {
        "type": "Point",
        "coordinates": [
          80.25200000000001,
          12.74
        ]
      }
    },
    {
      "type": "Feature",
      "properties": {
        "segment_id": "SEG_054",
        "observation_date": "2026-09-28",
        "ndvi": 0.03456363838692665,
        "ndwi": -0.004995230431178225,
        "mndwi": 0.021918622050523036,
        "savi": 0.04294911114818181,
        "water_probability": 0.5156561586075165,
        "land_water_class": "water",
        "classification_confidence": 0.5156561586075165,
        "quality_flag": "SYNTHETIC",
        "source_mode": "synthetic_fallback",
        "scene_id": "SYNTHETIC_LANDSAT_DEMO"
      },
      "geometry": {
        "type": "Point",
        "coordinates": [
          80.253,
          12.735
        ]
      }
    },
    {
      "type": "Feature",
      "properties": {
        "segment_id": "SEG_055",
        "observation_date": "2026-09-28",
        "ndvi": 0.050484419265139954,
        "ndwi": -0.09683714861083481,
        "mndwi": -0.1116971026773714,
        "savi": 0.037534957611876314,
        "water_probability": 0.420216355230449,
        "land_water_class": "land",
        "classification_confidence": 0.579783644769551,
        "quality_flag": "SYNTHETIC",
        "source_mode": "synthetic_fallback",
        "scene_id": "SYNTHETIC_LANDSAT_DEMO"
      },
      "geometry": {
        "type": "Point",
        "coordinates": [
          80.254,
          12.73
        ]
      }
    },
    {
      "type": "Feature",
      "properties": {
        "segment_id": "SEG_056",
        "observation_date": "2026-09-28",
        "ndvi": 0.11753811477794356,
        "ndwi": 0.04467905056445674,
        "mndwi": 0.026893970515937178,
        "savi": 0.16095959664318404,
        "water_probability": 0.5192099789399551,
        "land_water_class": "water",
        "classification_confidence": 0.5192099789399551,
        "quality_flag": "SYNTHETIC",
        "source_mode": "synthetic_fallback",
        "scene_id": "SYNTHETIC_LANDSAT_DEMO"
      },
      "geometry": {
        "type": "Point",
        "coordinates": [
          80.25500000000001,
          12.725
        ]
      }
    },
    {
      "type": "Feature",
      "properties": {
        "segment_id": "SEG_057",
        "observation_date": "2026-09-28",
        "ndvi": 0.12073599494950289,
        "ndwi": -0.03300464795201202,
        "mndwi": -0.03607317146514173,
        "savi": 0.07965953738418606,
        "water_probability": 0.47423344895347014,
        "land_water_class": "land",
        "classification_confidence": 0.5257665510465299,
        "quality_flag": "SYNTHETIC",
        "source_mode": "synthetic_fallback",
        "scene_id": "SYNTHETIC_LANDSAT_DEMO"
      },
      "geometry": {
        "type": "Point",
        "coordinates": [
          80.256,
          12.72
        ]
      }
    },
    {
      "type": "Feature",
      "properties": {
        "segment_id": "SEG_058",
        "observation_date": "2026-09-28",
        "ndvi": 0.11700059066295825,
        "ndwi": -0.15632996680607575,
        "mndwi": -0.17205211553053862,
        "savi": 0.07245965846888189,
        "water_probability": 0.377105631763901,
        "land_water_class": "land",
        "classification_confidence": 0.622894368236099,
        "quality_flag": "SYNTHETIC",
        "source_mode": "synthetic_fallback",
        "scene_id": "SYNTHETIC_LANDSAT_DEMO"
      },
      "geometry": {
        "type": "Point",
        "coordinates": [
          80.257,
          12.715
        ]
      }
    },
    {
      "type": "Feature",
      "properties": {
        "segment_id": "SEG_059",
        "observation_date": "2026-09-28",
        "ndvi": 0.08601198160522487,
        "ndwi": -0.29157531868115055,
        "mndwi": -0.2739485834720228,
        "savi": 0.04094619372163536,
        "water_probability": 0.3043224403771266,
        "land_water_class": "land",
        "classification_confidence": 0.6956775596228735,
        "quality_flag": "SYNTHETIC",
        "source_mode": "synthetic_fallback",
        "scene_id": "SYNTHETIC_LANDSAT_DEMO"
      },
      "geometry": {
        "type": "Point",
        "coordinates": [
          80.25800000000001,
          12.71
        ]
      }
    },
    {
      "type": "Feature",
      "properties": {
        "segment_id": "SEG_060",
        "observation_date": "2026-09-28",
        "ndvi": 0.1548849755325867,
        "ndwi": -0.09368895269265237,
        "mndwi": -0.2029668837414389,
        "savi": 0.0820994547573207,
        "water_probability": 0.3550236544704008,
        "land_water_class": "land",
        "classification_confidence": 0.6449763455295991,
        "quality_flag": "SYNTHETIC",
        "source_mode": "synthetic_fallback",
        "scene_id": "SYNTHETIC_LANDSAT_DEMO"
      },
      "geometry": {
        "type": "Point",
        "coordinates": [
          80.259,
          12.705
        ]
      }
    },
    {
      "type": "Feature",
      "properties": {
        "segment_id": "SEG_061",
        "observation_date": "2026-09-28",
        "ndvi": 0.13451155103757276,
        "ndwi": -0.010471878550733185,
        "mndwi": -0.08693871156720753,
        "savi": 0.09550719228882924,
        "water_probability": 0.43790092030913746,
        "land_water_class": "land",
        "classification_confidence": 0.5620990796908625,
        "quality_flag": "SYNTHETIC",
        "source_mode": "synthetic_fallback",
        "scene_id": "SYNTHETIC_LANDSAT_DEMO"
      },
      "geometry": {
        "type": "Point",
        "coordinates": [
          80.26,
          12.7
        ]
      }
    },
    {
      "type": "Feature",
      "properties": {
        "segment_id": "SEG_062",
        "observation_date": "2026-09-28",
        "ndvi": 0.1796658370353303,
        "ndwi": -0.3182147604902267,
        "mndwi": -0.23279069436628308,
        "savi": 0.16610562590632266,
        "water_probability": 0.33372093259551205,
        "land_water_class": "land",
        "classification_confidence": 0.666279067404488,
        "quality_flag": "SYNTHETIC",
        "source_mode": "synthetic_fallback",
        "scene_id": "SYNTHETIC_LANDSAT_DEMO"
      },
      "geometry": {
        "type": "Point",
        "coordinates": [
          80.26100000000001,
          12.695
        ]
      }
    },
    {
      "type": "Feature",
      "properties": {
        "segment_id": "SEG_063",
        "observation_date": "2026-09-28",
        "ndvi": 0.18405337384926795,
        "ndwi": -0.18982976398535167,
        "mndwi": -0.20596457084606773,
        "savi": 0.13785538974801936,
        "water_probability": 0.3528824493956659,
        "land_water_class": "land",
        "classification_confidence": 0.6471175506043341,
        "quality_flag": "SYNTHETIC",
        "source_mode": "synthetic_fallback",
        "scene_id": "SYNTHETIC_LANDSAT_DEMO"
      },
      "geometry": {
        "type": "Point",
        "coordinates": [
          80.262,
          12.69
        ]
      }
    },
    {
      "type": "Feature",
      "properties": {
        "segment_id": "SEG_064",
        "observation_date": "2026-09-28",
        "ndvi": 0.2970503271989088,
        "ndwi": -0.08552850478542456,
        "mndwi": -0.06121234885846466,
        "savi": 0.1943876369004669,
        "water_probability": 0.4562768936725253,
        "land_water_class": "land",
        "classification_confidence": 0.5437231063274748,
        "quality_flag": "SYNTHETIC",
        "source_mode": "synthetic_fallback",
        "scene_id": "SYNTHETIC_LANDSAT_DEMO"
      },
      "geometry": {
        "type": "Point",
        "coordinates": [
          80.263,
          12.685
        ]
      }
    },
    {
      "type": "Feature",
      "properties": {
        "segment_id": "SEG_065",
        "observation_date": "2026-09-28",
        "ndvi": 0.235069664722495,
        "ndwi": -0.20448417890766551,
        "mndwi": -0.327645277824419,
        "savi": 0.20496802498723254,
        "water_probability": 0.2659676586968436,
        "land_water_class": "land",
        "classification_confidence": 0.7340323413031564,
        "quality_flag": "SYNTHETIC",
        "source_mode": "synthetic_fallback",
        "scene_id": "SYNTHETIC_LANDSAT_DEMO"
      },
      "geometry": {
        "type": "Point",
        "coordinates": [
          80.264,
          12.68
        ]
      }
    },
    {
      "type": "Feature",
      "properties": {
        "segment_id": "SEG_066",
        "observation_date": "2026-09-28",
        "ndvi": 0.21180027658206912,
        "ndwi": 0.023242823118007738,
        "mndwi": -0.07683043354916344,
        "savi": 0.14691801416129852,
        "water_probability": 0.4451211188934547,
        "land_water_class": "land",
        "classification_confidence": 0.5548788811065453,
        "quality_flag": "SYNTHETIC",
        "source_mode": "synthetic_fallback",
        "scene_id": "SYNTHETIC_LANDSAT_DEMO"
      },
      "geometry": {
        "type": "Point",
        "coordinates": [
          80.265,
          12.675
        ]
      }
    },
    {
      "type": "Feature",
      "properties": {
        "segment_id": "SEG_067",
        "observation_date": "2026-09-28",
        "ndvi": 0.22929748694090205,
        "ndwi": -0.4292138293241291,
        "mndwi": -0.3750684436365783,
        "savi": 0.18463263573985028,
        "water_probability": 0.23209396883101546,
        "land_water_class": "land",
        "classification_confidence": 0.7679060311689845,
        "quality_flag": "SYNTHETIC",
        "source_mode": "synthetic_fallback",
        "scene_id": "SYNTHETIC_LANDSAT_DEMO"
      },
      "geometry": {
        "type": "Point",
        "coordinates": [
          80.266,
          12.67
        ]
      }
    },
    {
      "type": "Feature",
      "properties": {
        "segment_id": "SEG_068",
        "observation_date": "2026-09-28",
        "ndvi": 0.251624368429013,
        "ndwi": -0.23324216494463945,
        "mndwi": -0.19040967550245042,
        "savi": 0.1743758068329138,
        "water_probability": 0.3639930889268211,
        "land_water_class": "land",
        "classification_confidence": 0.636006911073179,
        "quality_flag": "SYNTHETIC",
        "source_mode": "synthetic_fallback",
        "scene_id": "SYNTHETIC_LANDSAT_DEMO"
      },
      "geometry": {
        "type": "Point",
        "coordinates": [
          80.267,
          12.665
        ]
      }
    },
    {
      "type": "Feature",
      "properties": {
        "segment_id": "SEG_069",
        "observation_date": "2026-09-28",
        "ndvi": 0.27589183478344964,
        "ndwi": -0.12461386245708665,
        "mndwi": -0.19971736297099835,
        "savi": 0.21886837200681364,
        "water_probability": 0.3573447407350012,
        "land_water_class": "land",
        "classification_confidence": 0.6426552592649988,
        "quality_flag": "SYNTHETIC",
        "source_mode": "synthetic_fallback",
        "scene_id": "SYNTHETIC_LANDSAT_DEMO"
      },
      "geometry": {
        "type": "Point",
        "coordinates": [
          80.268,
          12.66
        ]
      }
    },
    {
      "type": "Feature",
      "properties": {
        "segment_id": "SEG_070",
        "observation_date": "2026-09-28",
        "ndvi": 0.2505821818366218,
        "ndwi": -0.19300097132362345,
        "mndwi": -0.25012419051201684,
        "savi": 0.14544153584255712,
        "water_probability": 0.321339863919988,
        "land_water_class": "land",
        "classification_confidence": 0.678660136080012,
        "quality_flag": "SYNTHETIC",
        "source_mode": "synthetic_fallback",
        "scene_id": "SYNTHETIC_LANDSAT_DEMO"
      },
      "geometry": {
        "type": "Point",
        "coordinates": [
          80.269,
          12.655
        ]
      }
    },
    {
      "type": "Feature",
      "properties": {
        "segment_id": "SEG_071",
        "observation_date": "2026-09-28",
        "ndvi": 0.25943988590049266,
        "ndwi": -0.256540523235422,
        "mndwi": -0.19469170001915276,
        "savi": 0.21881526677901286,
        "water_probability": 0.36093449998631943,
        "land_water_class": "land",
        "classification_confidence": 0.6390655000136806,
        "quality_flag": "SYNTHETIC",
        "source_mode": "synthetic_fallback",
        "scene_id": "SYNTHETIC_LANDSAT_DEMO"
      },
      "geometry": {
        "type": "Point",
        "coordinates": [
          80.27,
          12.65
        ]
      }
    },
    {
      "type": "Feature",
      "properties": {
        "segment_id": "SEG_072",
        "observation_date": "2026-09-28",
        "ndvi": 0.30538844040851576,
        "ndwi": -0.3536575309827125,
        "mndwi": -0.29155284414027405,
        "savi": 0.2592176348235904,
        "water_probability": 0.2917479684712328,
        "land_water_class": "land",
        "classification_confidence": 0.7082520315287673,
        "quality_flag": "SYNTHETIC",
        "source_mode": "synthetic_fallback",
        "scene_id": "SYNTHETIC_LANDSAT_DEMO"
      },
      "geometry": {
        "type": "Point",
        "coordinates": [
          80.271,
          12.645
        ]
      }
    },
    {
      "type": "Feature",
      "properties": {
        "segment_id": "SEG_073",
        "observation_date": "2026-09-28",
        "ndvi": 0.3297213195469611,
        "ndwi": -0.43995823452260163,
        "mndwi": -0.30311396380028627,
        "savi": 0.23536396091781717,
        "water_probability": 0.2834900258569384,
        "land_water_class": "land",
        "classification_confidence": 0.7165099741430616,
        "quality_flag": "SYNTHETIC",
        "source_mode": "synthetic_fallback",
        "scene_id": "SYNTHETIC_LANDSAT_DEMO"
      },
      "geometry": {
        "type": "Point",
        "coordinates": [
          80.272,
          12.64
        ]
      }
    },
    {
      "type": "Feature",
      "properties": {
        "segment_id": "SEG_074",
        "observation_date": "2026-09-28",
        "ndvi": 0.29336351138903094,
        "ndwi": -0.22983522270870957,
        "mndwi": -0.26275955184055716,
        "savi": 0.24372885495282273,
        "water_probability": 0.31231460582817344,
        "land_water_class": "land",
        "classification_confidence": 0.6876853941718266,
        "quality_flag": "SYNTHETIC",
        "source_mode": "synthetic_fallback",
        "scene_id": "SYNTHETIC_LANDSAT_DEMO"
      },
      "geometry": {
        "type": "Point",
        "coordinates": [
          80.273,
          12.635
        ]
      }
    },
    {
      "type": "Feature",
      "properties": {
        "segment_id": "SEG_075",
        "observation_date": "2026-09-28",
        "ndvi": 0.3440863569196086,
        "ndwi": -0.2810411068119234,
        "mndwi": -0.21980372564112316,
        "savi": 0.2366783411852984,
        "water_probability": 0.34299733882776917,
        "land_water_class": "land",
        "classification_confidence": 0.6570026611722308,
        "quality_flag": "SYNTHETIC",
        "source_mode": "synthetic_fallback",
        "scene_id": "SYNTHETIC_LANDSAT_DEMO"
      },
      "geometry": {
        "type": "Point",
        "coordinates": [
          80.274,
          12.63
        ]
      }
    },
    {
      "type": "Feature",
      "properties": {
        "segment_id": "SEG_076",
        "observation_date": "2026-09-28",
        "ndvi": 0.2892295428389367,
        "ndwi": -0.3594782736424302,
        "mndwi": -0.2985741992987012,
        "savi": 0.3073077809389948,
        "water_probability": 0.286732714786642,
        "land_water_class": "land",
        "classification_confidence": 0.713267285213358,
        "quality_flag": "SYNTHETIC",
        "source_mode": "synthetic_fallback",
        "scene_id": "SYNTHETIC_LANDSAT_DEMO"
      },
      "geometry": {
        "type": "Point",
        "coordinates": [
          80.275,
          12.625
        ]
      }
    },
    {
      "type": "Feature",
      "properties": {
        "segment_id": "SEG_077",
        "observation_date": "2026-09-28",
        "ndvi": 0.33028663793786806,
        "ndwi": -0.15285323346580204,
        "mndwi": -0.19725408764406216,
        "savi": 0.29985083074835417,
        "water_probability": 0.3591042231113842,
        "land_water_class": "land",
        "classification_confidence": 0.6408957768886159,
        "quality_flag": "SYNTHETIC",
        "source_mode": "synthetic_fallback",
        "scene_id": "SYNTHETIC_LANDSAT_DEMO"
      },
      "geometry": {
        "type": "Point",
        "coordinates": [
          80.276,
          12.62
        ]
      }
    },
    {
      "type": "Feature",
      "properties": {
        "segment_id": "SEG_078",
        "observation_date": "2026-09-28",
        "ndvi": 0.36193806449377774,
        "ndwi": -0.13953105657328493,
        "mndwi": -0.15484386158463742,
        "savi": 0.34816610844829077,
        "water_probability": 0.3893972417252589,
        "land_water_class": "land",
        "classification_confidence": 0.6106027582747411,
        "quality_flag": "SYNTHETIC",
        "source_mode": "synthetic_fallback",
        "scene_id": "SYNTHETIC_LANDSAT_DEMO"
      },
      "geometry": {
        "type": "Point",
        "coordinates": [
          80.277,
          12.615
        ]
      }
    },
    {
      "type": "Feature",
      "properties": {
        "segment_id": "SEG_079",
        "observation_date": "2026-09-28",
        "ndvi": 0.30608632505742117,
        "ndwi": -0.18355730469224324,
        "mndwi": -0.29141097469092164,
        "savi": 0.2869997761542103,
        "water_probability": 0.2918493037921988,
        "land_water_class": "land",
        "classification_confidence": 0.7081506962078012,
        "quality_flag": "SYNTHETIC",
        "source_mode": "synthetic_fallback",
        "scene_id": "SYNTHETIC_LANDSAT_DEMO"
      },
      "geometry": {
        "type": "Point",
        "coordinates": [
          80.278,
          12.61
        ]
      }
    },
    {
      "type": "Feature",
      "properties": {
        "segment_id": "SEG_080",
        "observation_date": "2026-09-28",
        "ndvi": 0.2599672388708941,
        "ndwi": -0.3087205603091823,
        "mndwi": -0.3393938691820344,
        "savi": 0.23271009283825705,
        "water_probability": 0.25757580772711824,
        "land_water_class": "land",
        "classification_confidence": 0.7424241922728818,
        "quality_flag": "SYNTHETIC",
        "source_mode": "synthetic_fallback",
        "scene_id": "SYNTHETIC_LANDSAT_DEMO"
      },
      "geometry": {
        "type": "Point",
        "coordinates": [
          80.279,
          12.605
        ]
      }
    },
    {
      "type": "Feature",
      "properties": {
        "segment_id": "SEG_081",
        "observation_date": "2026-09-28",
        "ndvi": 0.26632991514117904,
        "ndwi": -0.3172938690718087,
        "mndwi": -0.3379701633568301,
        "savi": 0.23775882890095706,
        "water_probability": 0.25859274045940706,
        "land_water_class": "land",
        "classification_confidence": 0.7414072595405929,
        "quality_flag": "SYNTHETIC",
        "source_mode": "synthetic_fallback",
        "scene_id": "SYNTHETIC_LANDSAT_DEMO"
      },
      "geometry": {
        "type": "Point",
        "coordinates": [
          80.28,
          12.6
        ]
      }
    },
    {
      "type": "Feature",
      "properties": {
        "segment_id": "SEG_082",
        "observation_date": "2026-09-28",
        "ndvi": 0.28525566637784294,
        "ndwi": -0.2603279686424916,
        "mndwi": -0.2755010575406855,
        "savi": 0.2273485841788482,
        "water_probability": 0.3032135303280818,
        "land_water_class": "land",
        "classification_confidence": 0.6967864696719182,
        "quality_flag": "SYNTHETIC",
        "source_mode": "synthetic_fallback",
        "scene_id": "SYNTHETIC_LANDSAT_DEMO"
      },
      "geometry": {
        "type": "Point",
        "coordinates": [
          80.281,
          12.595
        ]
      }
    },
    {
      "type": "Feature",
      "properties": {
        "segment_id": "SEG_083",
        "observation_date": "2026-09-28",
        "ndvi": 0.3635798434983236,
        "ndwi": -0.3548780742247021,
        "mndwi": -0.2851533034606449,
        "savi": 0.24554323350445917,
        "water_probability": 0.2963190689566822,
        "land_water_class": "land",
        "classification_confidence": 0.7036809310433179,
        "quality_flag": "SYNTHETIC",
        "source_mode": "synthetic_fallback",
        "scene_id": "SYNTHETIC_LANDSAT_DEMO"
      },
      "geometry": {
        "type": "Point",
        "coordinates": [
          80.282,
          12.59
        ]
      }
    },
    {
      "type": "Feature",
      "properties": {
        "segment_id": "SEG_084",
        "observation_date": "2026-09-28",
        "ndvi": 0.36524188670319474,
        "ndwi": -0.2683685794163184,
        "mndwi": -0.20070173352281562,
        "savi": 0.2990614083440187,
        "water_probability": 0.3566416189122745,
        "land_water_class": "land",
        "classification_confidence": 0.6433583810877255,
        "quality_flag": "SYNTHETIC",
        "source_mode": "synthetic_fallback",
        "scene_id": "SYNTHETIC_LANDSAT_DEMO"
      },
      "geometry": {
        "type": "Point",
        "coordinates": [
          80.283,
          12.585
        ]
      }
    },
    {
      "type": "Feature",
      "properties": {
        "segment_id": "SEG_085",
        "observation_date": "2026-09-28",
        "ndvi": 0.2999619283619566,
        "ndwi": 0.041067100304571336,
        "mndwi": -0.06415436129749352,
        "savi": 0.2521686796180584,
        "water_probability": 0.4541754562160761,
        "land_water_class": "land",
        "classification_confidence": 0.545824543783924,
        "quality_flag": "SYNTHETIC",
        "source_mode": "synthetic_fallback",
        "scene_id": "SYNTHETIC_LANDSAT_DEMO"
      },
      "geometry": {
        "type": "Point",
        "coordinates": [
          80.284,
          12.58
        ]
      }
    },
    {
      "type": "Feature",
      "properties": {
        "segment_id": "SEG_086",
        "observation_date": "2026-09-28",
        "ndvi": 0.2737689965705654,
        "ndwi": -0.17369643030451137,
        "mndwi": -0.22821251189803804,
        "savi": 0.2336362147181152,
        "water_probability": 0.33699106292997283,
        "land_water_class": "land",
        "classification_confidence": 0.6630089370700272,
        "quality_flag": "SYNTHETIC",
        "source_mode": "synthetic_fallback",
        "scene_id": "SYNTHETIC_LANDSAT_DEMO"
      },
      "geometry": {
        "type": "Point",
        "coordinates": [
          80.285,
          12.575
        ]
      }
    },
    {
      "type": "Feature",
      "properties": {
        "segment_id": "SEG_087",
        "observation_date": "2026-09-28",
        "ndvi": 0.2295853806952198,
        "ndwi": -0.26263249711383496,
        "mndwi": -0.25912782248231403,
        "savi": 0.19766700369037044,
        "water_probability": 0.3149086982269185,
        "land_water_class": "land",
        "classification_confidence": 0.6850913017730815,
        "quality_flag": "SYNTHETIC",
        "source_mode": "synthetic_fallback",
        "scene_id": "SYNTHETIC_LANDSAT_DEMO"
      },
      "geometry": {
        "type": "Point",
        "coordinates": [
          80.286,
          12.57
        ]
      }
    },
    {
      "type": "Feature",
      "properties": {
        "segment_id": "SEG_088",
        "observation_date": "2026-09-28",
        "ndvi": 0.24001643434311196,
        "ndwi": -0.0947694517477976,
        "mndwi": -0.1382264123951713,
        "savi": 0.20590404024168615,
        "water_probability": 0.40126684828916337,
        "land_water_class": "land",
        "classification_confidence": 0.5987331517108366,
        "quality_flag": "SYNTHETIC",
        "source_mode": "synthetic_fallback",
        "scene_id": "SYNTHETIC_LANDSAT_DEMO"
      },
      "geometry": {
        "type": "Point",
        "coordinates": [
          80.287,
          12.565
        ]
      }
    },
    {
      "type": "Feature",
      "properties": {
        "segment_id": "SEG_089",
        "observation_date": "2026-09-28",
        "ndvi": 0.3104730952929685,
        "ndwi": -0.18787593125318186,
        "mndwi": -0.12120963719812838,
        "savi": 0.22874298321199937,
        "water_probability": 0.4134216877156226,
        "land_water_class": "land",
        "classification_confidence": 0.5865783122843774,
        "quality_flag": "SYNTHETIC",
        "source_mode": "synthetic_fallback",
        "scene_id": "SYNTHETIC_LANDSAT_DEMO"
      },
      "geometry": {
        "type": "Point",
        "coordinates": [
          80.288,
          12.56
        ]
      }
    },
    {
      "type": "Feature",
      "properties": {
        "segment_id": "SEG_090",
        "observation_date": "2026-09-28",
        "ndvi": 0.24172191192080958,
        "ndwi": -0.20795482353355293,
        "mndwi": -0.18345150589826936,
        "savi": 0.20662105882211565,
        "water_probability": 0.36896321007266475,
        "land_water_class": "land",
        "classification_confidence": 0.6310367899273353,
        "quality_flag": "SYNTHETIC",
        "source_mode": "synthetic_fallback",
        "scene_id": "SYNTHETIC_LANDSAT_DEMO"
      },
      "geometry": {
        "type": "Point",
        "coordinates": [
          80.289,
          12.555
        ]
      }
    },
    {
      "type": "Feature",
      "properties": {
        "segment_id": "SEG_091",
        "observation_date": "2026-09-28",
        "ndvi": 0.2588798447802964,
        "ndwi": -0.07095958082450907,
        "mndwi": -0.06211303142941903,
        "savi": 0.26769615127772983,
        "water_probability": 0.4556335489789864,
        "land_water_class": "land",
        "classification_confidence": 0.5443664510210136,
        "quality_flag": "SYNTHETIC",
        "source_mode": "synthetic_fallback",
        "scene_id": "SYNTHETIC_LANDSAT_DEMO"
      },
      "geometry": {
        "type": "Point",
        "coordinates": [
          80.29,
          12.55
        ]
      }
    },
    {
      "type": "Feature",
      "properties": {
        "segment_id": "SEG_092",
        "observation_date": "2026-09-28",
        "ndvi": 0.2607466006493621,
        "ndwi": -0.0955940737512835,
        "mndwi": -0.12892899907029098,
        "savi": 0.20296957954433004,
        "water_probability": 0.407907857806935,
        "land_water_class": "land",
        "classification_confidence": 0.5920921421930649,
        "quality_flag": "SYNTHETIC",
        "source_mode": "synthetic_fallback",
        "scene_id": "SYNTHETIC_LANDSAT_DEMO"
      },
      "geometry": {
        "type": "Point",
        "coordinates": [
          80.291,
          12.545
        ]
      }
    },
    {
      "type": "Feature",
      "properties": {
        "segment_id": "SEG_093",
        "observation_date": "2026-09-28",
        "ndvi": 0.1996758645647434,
        "ndwi": -0.061686682662760846,
        "mndwi": -0.06884023433040437,
        "savi": 0.15258100830412977,
        "water_probability": 0.45082840404971114,
        "land_water_class": "land",
        "classification_confidence": 0.5491715959502889,
        "quality_flag": "SYNTHETIC",
        "source_mode": "synthetic_fallback",
        "scene_id": "SYNTHETIC_LANDSAT_DEMO"
      },
      "geometry": {
        "type": "Point",
        "coordinates": [
          80.292,
          12.54
        ]
      }
    },
    {
      "type": "Feature",
      "properties": {
        "segment_id": "SEG_094",
        "observation_date": "2026-09-28",
        "ndvi": 0.24124920611531195,
        "ndwi": 0.05315168152056906,
        "mndwi": -0.016766770612261554,
        "savi": 0.25448364512611504,
        "water_probability": 0.4880237352769561,
        "land_water_class": "land",
        "classification_confidence": 0.5119762647230439,
        "quality_flag": "SYNTHETIC",
        "source_mode": "synthetic_fallback",
        "scene_id": "SYNTHETIC_LANDSAT_DEMO"
      },
      "geometry": {
        "type": "Point",
        "coordinates": [
          80.293,
          12.535
        ]
      }
    },
    {
      "type": "Feature",
      "properties": {
        "segment_id": "SEG_095",
        "observation_date": "2026-09-28",
        "ndvi": 0.24727097849361868,
        "ndwi": 0.05595973059891396,
        "mndwi": 0.026513728059284824,
        "savi": 0.2461895194673555,
        "water_probability": 0.5189383771852035,
        "land_water_class": "water",
        "classification_confidence": 0.5189383771852035,
        "quality_flag": "SYNTHETIC",
        "source_mode": "synthetic_fallback",
        "scene_id": "SYNTHETIC_LANDSAT_DEMO"
      },
      "geometry": {
        "type": "Point",
        "coordinates": [
          80.294,
          12.53
        ]
      }
    },
    {
      "type": "Feature",
      "properties": {
        "segment_id": "SEG_096",
        "observation_date": "2026-09-28",
        "ndvi": 0.2179960953493973,
        "ndwi": -0.07224190658791148,
        "mndwi": -0.10089366682391919,
        "savi": 0.15042381764278978,
        "water_probability": 0.427933095125772,
        "land_water_class": "land",
        "classification_confidence": 0.572066904874228,
        "quality_flag": "SYNTHETIC",
        "source_mode": "synthetic_fallback",
        "scene_id": "SYNTHETIC_LANDSAT_DEMO"
      },
      "geometry": {
        "type": "Point",
        "coordinates": [
          80.295,
          12.525
        ]
      }
    },
    {
      "type": "Feature",
      "properties": {
        "segment_id": "SEG_097",
        "observation_date": "2026-09-28",
        "ndvi": 0.19296251432924524,
        "ndwi": 0.13404625307625573,
        "mndwi": 0.1941868919177038,
        "savi": 0.16072631362902973,
        "water_probability": 0.6387049227983599,
        "land_water_class": "water",
        "classification_confidence": 0.6387049227983599,
        "quality_flag": "SYNTHETIC",
        "source_mode": "synthetic_fallback",
        "scene_id": "SYNTHETIC_LANDSAT_DEMO"
      },
      "geometry": {
        "type": "Point",
        "coordinates": [
          80.296,
          12.52
        ]
      }
    },
    {
      "type": "Feature",
      "properties": {
        "segment_id": "SEG_098",
        "observation_date": "2026-09-28",
        "ndvi": 0.171032946130833,
        "ndwi": 0.08379705706437689,
        "mndwi": 0.07040973596000692,
        "savi": 0.16388243020190146,
        "water_probability": 0.5502926685428621,
        "land_water_class": "water",
        "classification_confidence": 0.5502926685428621,
        "quality_flag": "SYNTHETIC",
        "source_mode": "synthetic_fallback",
        "scene_id": "SYNTHETIC_LANDSAT_DEMO"
      },
      "geometry": {
        "type": "Point",
        "coordinates": [
          80.297,
          12.515
        ]
      }
    },
    {
      "type": "Feature",
      "properties": {
        "segment_id": "SEG_099",
        "observation_date": "2026-09-28",
        "ndvi": 0.10145138280681783,
        "ndwi": 0.17229772356497727,
        "mndwi": 0.1585288206371609,
        "savi": 0.10830116815864636,
        "water_probability": 0.6132348718836863,
        "land_water_class": "water",
        "classification_confidence": 0.6132348718836863,
        "quality_flag": "SYNTHETIC",
        "source_mode": "synthetic_fallback",
        "scene_id": "SYNTHETIC_LANDSAT_DEMO"
      },
      "geometry": {
        "type": "Point",
        "coordinates": [
          80.298,
          12.51
        ]
      }
    },
    {
      "type": "Feature",
      "properties": {
        "segment_id": "SEG_100",
        "observation_date": "2026-09-28",
        "ndvi": 0.20917098042696924,
        "ndwi": 0.3273066520295996,
        "mndwi": 0.21964444875357803,
        "savi": 0.217239569508101,
        "water_probability": 0.6568888919668414,
        "land_water_class": "water",
        "classification_confidence": 0.6568888919668414,
        "quality_flag": "SYNTHETIC",
        "source_mode": "synthetic_fallback",
        "scene_id": "SYNTHETIC_LANDSAT_DEMO"
      },
      "geometry": {
        "type": "Point",
        "coordinates": [
          80.299,
          12.505
        ]
      }
    }
  ]
}